ZipCode,City,County
55005,Bethel,Anoka County
55005,East Bethel,Anoka County
55011,Cedar East Bethel,Anoka County
55011,Cedar,Anoka County
55011,East Bethel,Anoka County
55014,Blaine,Anoka County
55014,Circle Pines,Anoka County
55014,Lino Lakes,Anoka County
55070,St. Francis,Anoka County
55303,Anoka,Anoka County
55303,Ramsey,Anoka County
55304,Andover,Anoka County
55304,Anoka,Anoka County
55304,Ham Lake,Anoka County
55421,Columbia Heights,Anoka County
55421,Fridley,Anoka County
55421,Minneapolis,Anoka County
55432,Fridley,Anoka County
55432,Minneapolis,Anoka County
55432,Spring Lake Park,Anoka County
55433,Coon Rapids,Anoka County
55433,Minneapolis,Anoka County
55434,Blaine,Anoka County
55434,Minneapolis,Anoka County
55448,Coon Rapids,Anoka County
55448,Minneapolis,Anoka County
55449,Blaine,Anoka County
55449,Minneapolis,Anoka County
55315,Carver,Carver County
55317,Chanhassen,Carver County
55318,Chaska,Carver County
55322,Cologne,Carver County
55339,Hamburg,Carver County
55360,Mayer,Carver County
55367,New Germany,Carver County
55368,Norwood Young America,Carver County
55368,Nya,Carver County
55368,Norwood,Carver County
55383,Norwood,Carver County
55386,Victoria,Carver County
55387,Waconia,Carver County
55388,Minnetrista,Carver County
55388,Watertown,Carver County
55394,Young America,Carver County
55397,Norwood Young America,Carver County
55397,Nya,Carver County
55397,Young America,Carver County
55399,Young America,Carver County
55473,Minneapolis,Carver County
55473,Young America,Carver County
55550,Young America,Carver County
55551,Young America,Carver County
55552,Young America,Carver County
55553,Young America,Carver County
55554,Norwood,Carver County
55555,Young America,Carver County
55556,Young America,Carver County
55557,Young America,Carver County
55559,Young America,Carver County
55560,Young America,Carver County
55561,Monticello,Carver County
55562,Young America,Carver County
55563,Monticello,Carver County
55564,Young America,Carver County
55566,Young America,Carver County
55567,Young America,Carver County
55568,Young America,Carver County
55583,Norwood,Carver County
55594,Young America,Carver County
55010,Castle Rock,Dakota County
55024,Farmington,Dakota County
55031,Hampton,Dakota County
55033,Hastings,Dakota County
55044,Lakeville,Dakota County
55065,Randolph,Dakota County
55068,Rosemount,Dakota County
55075,South Saint Paul,Dakota County
55076,South Saint Paul,Dakota County
55076,Inver Grove Heights,Dakota County
55077,South Saint Paul,Dakota County
55077,Inver Grove Heights,Dakota County
55085,Vermillion,Dakota County
55118,West Saint Paul,Dakota County
55118,Mendota Heights,Dakota County
55118,St. Paul,Dakota County
55118,Sunfish Lake,Dakota County
55120,Eagan,Dakota County
55120,Mendota Heights,Dakota County
55120,St. Paul,Dakota County
55121,Eagan,Dakota County
55121,St. Paul,Dakota County
55122,Eagan,Dakota County
55122,St. Paul,Dakota County
55123,Eagan,Dakota County
55123,St. Paul,Dakota County
55124,Apple Valley,Dakota County
55124,St. Paul,Dakota County
55150,Mendota,Dakota County
55150,St. Paul,Dakota County
55306,Burnsville,Dakota County
55337,Burnsville,Dakota County
55111,Twin Cities Amf,Hennepin County
55111,Fort Snelling,Hennepin County
55111,St. Paul,Hennepin County
55305,Hopkins,Hennepin County
55305,Minnetonka,Hennepin County
55311,Maple Grove,Hennepin County
55311,Osseo,Hennepin County
55316,Champlin,Hennepin County
55323,Crystal Bay,Hennepin County
55327,Dayton,Hennepin County
55331,Excelsior,Hennepin County
55331,Minnetrista,Hennepin County
55340,Hamel,Hennepin County
55340,Corcoran,Hennepin County
55340,Medina,Hennepin County
55343,Minnetonka Mills,Hennepin County
55343,Eden Prairie,Hennepin County
55343,Hopkins,Hennepin County
55343,Minnetonka,Hennepin County
55344,Eden Prairie,Hennepin County
55345,Hopkins,Hennepin County
55345,Minnetonka,Hennepin County
55346,Eden Prairie,Hennepin County
55347,Eden Prairie,Hennepin County
55348,Maple Plain,Hennepin County
55356,Long Lake,Hennepin County
55356,Orono,Hennepin County
55357,Loretto,Hennepin County
55359,Maple Plain,Hennepin County
55359,Minnetrista,Hennepin County
55361,Minnetonka Beach,Hennepin County
55364,Minnetrista,Hennepin County
55364,Mound,Hennepin County
55369,Maple Grove,Hennepin County
55369,Osseo,Hennepin County
55374,Rogers,Hennepin County
55375,Crown College,Hennepin County
55375,Minnetrista,Hennepin County
55375,St. Bonifacius,Hennepin County
55384,Spring Park,Hennepin County
55391,Wayzata,Hennepin County
55392,Navarre,Hennepin County
55401,Minneapolis,Hennepin County
55402,Minneapolis,Hennepin County
55403,Minneapolis,Hennepin County
55404,Minneapolis,Hennepin County
55405,Minneapolis,Hennepin County
55406,Minneapolis,Hennepin County
55407,Minneapolis,Hennepin County
55408,Minneapolis,Hennepin County
55409,Minneapolis,Hennepin County
55410,Edina,Hennepin County
55410,Minneapolis,Hennepin County
55411,Minneapolis,Hennepin County
55412,Minneapolis,Hennepin County
55413,Minneapolis,Hennepin County
55414,Minneapolis,Hennepin County
55415,Minneapolis,Hennepin County
55416,Edina,Hennepin County
55416,Golden Valley,Hennepin County
55416,Minneapolis,Hennepin County
55416,St. Louis Park,Hennepin County
55417,Minneapolis,Hennepin County
55418,Minneapolis,Hennepin County
55419,Minneapolis,Hennepin County
55420,Bloomington,Hennepin County
55420,Minneapolis,Hennepin County
55422,Crystal,Hennepin County
55422,Golden Valley,Hennepin County
55422,Minneapolis,Hennepin County
55422,Robbinsdale,Hennepin County
55423,Minneapolis,Hennepin County
55423,Richfield,Hennepin County
55424,Edina,Hennepin County
55424,Minneapolis,Hennepin County
55424,St. Louis Park,Hennepin County
55425,Bloomington,Hennepin County
55425,Minneapolis,Hennepin County
55426,Golden Valley,Hennepin County
55426,Minneapolis,Hennepin County
55426,St. Louis Park,Hennepin County
55427,Crystal,Hennepin County
55427,Golden Valley,Hennepin County
55427,Minneapolis,Hennepin County
55427,New Hope,Hennepin County
55428,Brooklyn Center,Hennepin County
55428,Brooklyn Park,Hennepin County
55428,Crystal,Hennepin County
55428,Minneapolis,Hennepin County
55428,New Hope,Hennepin County
55429,Brooklyn Center,Hennepin County
55429,Brooklyn Park,Hennepin County
55429,Crystal,Hennepin County
55429,Minneapolis,Hennepin County
55430,Brooklyn Center,Hennepin County
55430,Minneapolis,Hennepin County
55431,Bloomington,Hennepin County
55431,Minneapolis,Hennepin County
55435,Bloomington,Hennepin County
55435,Edina,Hennepin County
55435,Minneapolis,Hennepin County
55436,Edina,Hennepin County
55436,Minneapolis,Hennepin County
55436,St. Louis Park,Hennepin County
55437,Bloomington,Hennepin County
55437,Minneapolis,Hennepin County
55438,Bloomington,Hennepin County
55438,Minneapolis,Hennepin County
55439,Edina,Hennepin County
55439,Minneapolis,Hennepin County
55440,Minneapolis,Hennepin County
55441,Medicine Lake,Hennepin County
55441,Minneapolis,Hennepin County
55441,Plymouth,Hennepin County
55442,Minneapolis,Hennepin County
55442,Plymouth,Hennepin County
55443,Brooklyn Center,Hennepin County
55443,Brooklyn Park,Hennepin County
55443,Minneapolis,Hennepin County
55444,Brooklyn Center,Hennepin County
55444,Brooklyn Park,Hennepin County
55444,Minneapolis,Hennepin County
55445,Brooklyn Park,Hennepin County
55445,Minneapolis,Hennepin County
55446,Minneapolis,Hennepin County
55446,Plymouth,Hennepin County
55447,Minneapolis,Hennepin County
55447,Plymouth,Hennepin County
55450,Minneapolis,Hennepin County
55454,Minneapolis,Hennepin County
55455,Minneapolis,Hennepin County
55458,Minneapolis,Hennepin County
55459,Minneapolis,Hennepin County
55460,Minneapolis,Hennepin County
55470,Minneapolis,Hennepin County
55480,Minneapolis,Hennepin County
55569,Maple Grove,Hennepin County
55569,Osseo,Hennepin County
55570,Maple Plain,Hennepin County
55571,Maple Plain,Hennepin County
55572,Maple Plain,Hennepin County
55573,Young America,Hennepin County
55574,Maple Plain,Hennepin County
55575,Howard Lake,Hennepin County
55576,Maple Plain,Hennepin County
55577,Maple Plain,Hennepin County
55578,Maple Plain,Hennepin County
55579,Maple Plain,Hennepin County
55593,Maple Plain,Hennepin County
55595,Loretto,Hennepin County
55596,Loretto,Hennepin County
55597,Loretto,Hennepin County
55598,Loretto,Hennepin County
55599,Loretto,Hennepin County
55101,St. Paul,Ramsey County
55102,St. Paul,Ramsey County
55103,St. Paul,Ramsey County
55104,St. Paul,Ramsey County
55105,St. Paul,Ramsey County
55106,St. Paul,Ramsey County
55107,West Saint Paul,Ramsey County
55107,St. Paul,Ramsey County
55108,Falcon Heights,Ramsey County
55108,Lauderdale,Ramsey County
55108,St. Paul,Ramsey County
55109,North Saint Paul,Ramsey County
55109,Maplewood,Ramsey County
55109,St. Paul,Ramsey County
55110,Dellwood,Ramsey County
55110,St. Paul,Ramsey County
55110,White Bear Lake,Ramsey County
55112,Arden Hills,Ramsey County
55112,Mounds View,Ramsey County
55112,New Brighton,Ramsey County
55112,St. Paul,Ramsey County
55113,Falcon Heights,Ramsey County
55113,Lauderdale,Ramsey County
55113,Roseville,Ramsey County
55113,St. Paul,Ramsey County
55114,St. Paul,Ramsey County
55116,St. Paul,Ramsey County
55117,Little Canada,Ramsey County
55117,Maplewood,Ramsey County
55117,St. Paul,Ramsey County
55119,Maplewood,Ramsey County
55119,St. Paul,Ramsey County
55126,No Oaks,Ramsey County
55126,Roseville,Ramsey County
55126,St. Paul,Ramsey County
55126,Shoreview,Ramsey County
55127,North Oaks,Ramsey County
55127,St. Paul,Ramsey County
55127,Vadnais Heights,Ramsey County
55164,St. Paul,Ramsey County
55165,St. Paul,Ramsey County
55166,St. Paul,Ramsey County
55172,St. Paul,Ramsey County
55175,St. Paul,Ramsey County
55020,Elko,Scott County
55054,New Market,Scott County
55352,Jordan,Scott County
55372,Prior Lake,Scott County
55378,Savage,Scott County
55379,Shakopee,Scott County
56011,Belle Plaine,Scott County
56071,Heidelberg,Scott County
56071,New Prague,Scott County
55001,Afton,Washington County
55003,Bayport,Washington County
55016,Cottage Grove,Washington County
55025,Forest Lake,Washington County
55038,Centerville,Washington County
55038,Hugo,Washington County
55038,Lino Lakes,Washington County
55042,Lake Elmo,Washington County
55043,Lakeland,Washington County
55047,Marine On Saint Croix,Washington County
55047,Marine St Crx,Washington County
55055,Newport,Washington County
55071,St. Paul Park,Washington County
55073,Scandia,Washington County
55078,Stacy,Washington County
55082,Oak Park Heights,Washington County
55082,Stillwater,Washington County
55082,West Lakeland,Washington County
55083,Stillwater,Washington County
55090,Willernie,Washington County
55115,Mahtomedi,Washington County
55115,Pine Springs,Washington County
55115,St. Paul Park,Washington County
55115,White Bear Lake,Washington County
55125,St. Paul Park,Washington County
55125,Woodbury,Washington County
55128,Landfall Village,Washington County
55128,Oakdale,Washington County
55128,Pine Springs,Washington County
55128,St. Paul Park,Washington County
55129,St. Paul Park,Washington County
55129,Woodbury,Washington County
